COSMOS 2433 (720)       
1 32275U 07052A   25355.06676633 -.00000048  00000+0  00000+0 0  9991
2 32275  65.6786 321.9257 0005186 255.4545 104.4812  2.13104226141263
COSMOS 2432 (719)       
1 32276U 07052B   25355.24725650 -.00000047  00000+0  00000+0 0  9995
2 32276  65.6945 322.0440 0011336 314.2960 128.5462  2.13103424141296
COSMOS 2434 (721)       
1 32393U 07065A   25355.40235839  .00000097  00000+0  00000+0 0  9996
2 32393  64.3157 197.9109 0004818  72.3225  75.6648  2.13101489139981
COSMOS 2436 (723)       
1 32395U 07065C   25355.50690953  .00000096  00000+0  00000+0 0  9990
2 32395  64.3244 197.9777 0017804  10.1556 351.0795  2.13100253139945
COSMOS 2456 (730)       
1 36111U 09070A   25354.13424209 -.00000022  00000+0  00000+0 0  9995
2 36111  64.9040  77.0852 0003301 296.9564 115.2996  2.13103685124610
COSMOS 2457 (733)       
1 36112U 09070B   25355.36136300 -.00000011  00000+0  00000+0 0  9992
2 36112  64.8902  76.8905 0004536 162.3214 240.4067  2.13101117124643
COSMOS 2460 (732)       
1 36402U 10007C   25355.42443181 -.00000046  00000+0  00000+0 0  9999
2 36402  65.5250 320.4800 0002509 281.7872 168.9418  2.13106318122948
COSMOS 2476 (744)       
1 37867U 11064A   25353.25377954 -.00000030  00000+0  00000+0 0  9995
2 37867  65.1662  78.9509 0024321 234.6548 130.4776  2.13103916109937
COSMOS 2477 (745)       
1 37868U 11064B   25355.42437337 -.00000009  00000+0  00000+0 0  9995
2 37868  65.1732  78.9552 0021518 235.2861 175.9616  2.13103052109976
COSMOS 2475 (743)       
1 37869U 11064C   25355.47260318 -.00000009  00000+0  00000+0 0  9994
2 37869  65.1803  78.9738 0026589 248.9867 155.1664  2.13101692109984
COSMOS 2485 (747)       
1 39155U 13019A   25354.12239863 -.00000020  00000+0  00000+0 0  9991
2 39155  65.3174  79.6189 0024876 230.2075 129.6042  2.13103220 98462
COSMOS 2492 (754)       
1 39620U 14012A   25355.01951421 -.00000048  00000+0  00000+0 0  9992
2 39620  65.4030 319.9894 0014234 312.8453  47.0277  2.13103414 91447
COSMOS 2500 (755)       
1 40001U 14032A   25355.19160910 -.00000047  00000+0  00000+0 0  9992
2 40001  65.3386 319.7453 0007729 219.3736 140.5635  2.13106227 89663
COSMOS 2501 (702K)      
1 40315U 14075A   25353.10517885  .00000106  00000+0  00000+0 0  9998
2 40315  63.6146 196.6046 0020099 204.1838 155.7988  2.13101513 86014
COSMOS 2514 (751)       
1 41330U 16008A   25354.96621930 -.00000049  00000+0  00000+0 0  9993
2 41330  65.1291 319.1224 0011747 220.1373 139.7688  2.13102678 76822
COSMOS 2522 (752)       
1 42939U 17055A   25354.80457916  .00000099  00000+0  00000+0 0  9990
2 42939  64.0764 197.9542 0006306 223.7674 136.2560  2.13102071 64177
COSMOS 2527 (756)       
1 43508U 18053A   25354.76541425 -.00000014  00000+0  00000+0 0  9994
2 43508  65.4768  79.8631 0008872 227.1028 132.8569  2.13102375 58471
COSMOS 2529 (757)       
1 43687U 18086A   25355.33205308  .00000097  00000+0  00000+0 0  9999
2 43687  64.2925 198.5980 0006946 253.6032 106.3925  2.13102154 55492
COSMOS 2534 (758)       
1 44299U 19030A   25355.45545209  .00000097  00000+0  00000+0 0  9999
2 44299  64.3660 198.5992 0008728 284.1192 304.9695  2.13102432 51134
COSMOS 2544 (759)       
1 44850U 19088A   25355.17924409 -.00000010  00000+0  00000+0 0  9993
2 44850  65.4644  79.6762 0014188 250.1842 109.6995  2.13102125 46920
COSMOS 2545 (760)       
1 45358U 20018A   25354.90570264 -.00000050  00000+0  00000+0 0  9992
2 45358  64.4648 318.6832 0011426 250.0027 109.8672  2.13102664 44860
COSMOS 2547 (705K)      
1 46805U 20075A   25355.09386993  .00000098  00000+0  00000+0 0  9999
2 46805  64.5966 198.4175 0006113 227.7270 132.2941  2.13100243 40118
COSMOS 2557 (706K)      
1 52984U 22075A   25355.25908459 -.00000049  00000+0  00000+0 0  9998
2 52984  64.4050 320.7521 0013538 278.2868  81.5534  2.13102077 26928
COSMOS 2559 (707K)      
1 54031U 22130A   25355.07828487 -.00000050  00000+0  00000+0 0  9999
2 54031  64.3775 320.8478 0011560 191.8523 168.1144  2.13101354 24899
COSMOS 2564 (761)       
1 54377U 22161A   25354.92245604  .00000099  00000+0  00000+0 0  9995
2 54377  64.7387 198.6270 0008546 203.7858 156.2488  2.13102061 23838
COSMOS 2569 (703K)      
1 57517U 23114A   25354.46653462 -.00000018  00000+0  00000+0 0  9999
2 57517  65.1981  78.6524 0010798 287.0398  72.8764  2.13103983 18453
COSMOS 2584 (704K)      
1 63130U 25042A   25355.29167785 -.00000011  00000+0  00000+0 0  9992
2 63130  64.9804  78.8547 0007736 219.2410 140.7412  2.13103074  6250
COSMOS 2596 (708K)      
1 65590U 25206B   25355.34155068 -.00000048  00000+0  00000+0 0  9993
2 65590  64.7397 321.1762 0014079 307.1691 209.4715  2.13100442  2123
